{"type": "FeatureCollection", "features": [ {"type": "Feature", "properties": {"norad_id": 41556, "name": "ZIYUAN 3-02 (ZY 3-02)", "group": "resource", "lat": -46.1267102479939, "lon": -113.52049040740344, "alt_km": 502.11616069294905, "timestamp": "2025-12-26T07:29:18.117039+00:00", "meta": {"OBJECT_NAME": "ZIYUAN 3-02 (ZY 3-02)", "OBJECT_ID": "2016-033A", "EPOCH": "2025-12-25T22:36:08.266176", "MEAN_MOTION": 15.21241932, "ECCENTRICITY": 0.00114869, "INCLINATION": 97.4023, "RA_OF_ASC_NODE": 73.8872, "ARG_OF_PERICENTER": 196.949, "MEAN_ANOMALY": 163.1364, "EPHEMERIS_TYPE": 0, "CLASSIFICATION_TYPE": "U", "NORAD_CAT_ID": 41556, "ELEMENT_SET_NO": 999, "REV_AT_EPOCH": 53164, "BSTAR": 0.00035323124, "MEAN_MOTION_DOT": 7.835e-05, "MEAN_MOTION_DDOT": 0}, "tle": {"line1": "1 41556U 16033A   25359.94176234  .00007835  00000+0  35323-3 0  9995", "line2": "2 41556  97.4023  73.8872 0011486 196.9490 163.1364 15.21241932531644"}}, "geometry": {"type": "Point", "coordinates": [-113.52049040740344, -46.1267102479939]}}, {"type": "Feature", "properties": {"norad_id": 41599, "name": "CARTOSAT-2C", "group": "resource", "lat": 69.13979266753996, "lon": 37.26685135282433, "alt_km": 496.8125693455286, "timestamp": "2025-12-26T07:29:18.117049+00:00", "meta": {"OBJECT_NAME": "CARTOSAT-2C", "OBJECT_ID": "2016-040A", "EPOCH": "2025-12-25T23:16:34.219200", "MEAN_MOTION": 15.19234974, "ECCENTRICITY": 0.00106337, "INCLINATION": 97.4746, "RA_OF_ASC_NODE": 57.082, "ARG_OF_PERICENTER": 20.9397, "MEAN_ANOMALY": 339.227, "EPHEMERIS_TYPE": 0, "CLASSIFICATION_TYPE": "U", "NORAD_CAT_ID": 41599, "ELEMENT_SET_NO": 999, "REV_AT_EPOCH": 52741, "BSTAR": 0.00022879703, "MEAN_MOTION_DOT": 4.758e-05, "MEAN_MOTION_DDOT": 0}, "tle": {"line1": "1 41599U 16040A   25359.96984050  .00004758  00000+0  22880-3 0  9990", "line2": "2 41599  97.4746  57.0820 0010633  20.9397 339.2270 15.19234974527412"}}, "geometry": {"type": "Point", "coordinates": [37.26685135282433, 69.13979266753996]}}, {"type": "Feature", "properties": {"norad_id": 41601, "name": "SKYSAT-C1", "group": "resource", "lat": 62.692457209185335, "lon": 22.832534573565717, "alt_km": 461.4901570907223, "timestamp": "2025-12-26T07:29:18.117059+00:00", "meta": {"OBJECT_NAME": "SKYSAT-C1", "OBJECT_ID": "2016-040C", "EPOCH": "2025-12-25T15:32:40.638048", "MEAN_MOTION": 15.3282008, "ECCENTRICITY": 8.71e-05, "INCLINATION": 96.9805, "RA_OF_ASC_NODE": 35.9335, "ARG_OF_PERICENTER": 317.384, "MEAN_ANOMALY": 42.7336, "EPHEMERIS_TYPE": 0, "CLASSIFICATION_TYPE": "U", "NORAD_CAT_ID": 41601, "ELEMENT_SET_NO": 999, "REV_AT_EPOCH": 53125, "BSTAR": 0.00031619, "MEAN_MOTION_DOT": 9.953e-05, "MEAN_MOTION_DDOT": 0}, "tle": {"line1": "1 41601U 16040C   25359.64769257  .00009953  00000+0  31619-3 0  9991", "line2": "2 41601  96.9805  35.9335 0000871 317.3840  42.7336 15.32820080531251"}}, "geometry": {"type": "Point", "coordinates": [22.832534573565717, 62.692457209185335]}}, {"type": "Feature", "properties": {"norad_id": 41603, "name": "LAPAN-A3", "group": "resource", "lat": 26.11328618166039, "lon": -179.09999046751474, "alt_km": 473.3562926235045, "timestamp": "2025-12-26T07:29:18.117069+00:00", "meta": {"OBJECT_NAME": "LAPAN-A3", "OBJECT_ID": "2016-040E", "EPOCH": "2025-12-25T22:58:46.500960", "MEAN_MOTION": 15.31659854, "ECCENTRICITY": 0.00086516, "INCLINATION": 97.1436, "RA_OF_ASC_NODE": 357.0336, "ARG_OF_PERICENTER": 278.7927, "MEAN_ANOMALY": 81.2336, "EPHEMERIS_TYPE": 0, "CLASSIFICATION_TYPE": "U", "NORAD_CAT_ID": 41603, "ELEMENT_SET_NO": 999, "REV_AT_EPOCH": 52828, "BSTAR": 0.00015125392, "MEAN_MOTION_DOT": 4.554e-05, "MEAN_MOTION_DDOT": 0}, "tle": {"line1": "1 41603U 16040E   25359.95748265  .00004554  00000+0  15125-3 0  9999", "line2": "2 41603  97.1436 357.0336 0008651 278.7927  81.2336 15.31659854528280"}}, "geometry": {"type": "Point", "coordinates": [-179.09999046751474, 26.11328618166039]}}, {"type": "Feature", "properties": {"norad_id": 41604, "name": "BIROS", "group": "resource", "lat": 59.998952528157325, "lon": 19.936497163401466, "alt_km": 280.43448037766484, "timestamp": "2025-12-26T07:29:18.117080+00:00", "meta": {"OBJECT_NAME": "BIROS", "OBJECT_ID": "2016-040F", "EPOCH": "2025-12-25T01:07:09.917184", "MEAN_MOTION": 15.94683958, "ECCENTRICITY": 0.00039046, "INCLINATION": 97.0657, "RA_OF_ASC_NODE": 31.0163, "ARG_OF_PERICENTER": 124.4663, "MEAN_ANOMALY": 235.6982, "EPHEMERIS_TYPE": 0, "CLASSIFICATION_TYPE": "U", "NORAD_CAT_ID": 41604, "ELEMENT_SET_NO": 999, "REV_AT_EPOCH": 53068, "BSTAR": 0.0006151692, "MEAN_MOTION_DOT": 0.00232464, "MEAN_MOTION_DDOT": 2.2718232e-05}, "tle": {"line1": "1 41604U 16040F   25359.04664256  .00232464  22718-4  61517-3 0  9991", "line2": "2 41604  97.0657  31.0163 0003904 124.4663 235.6982 15.94683958530682"}}, "geometry": {"type": "Point", "coordinates": [19.936497163401466, 59.998952528157325]}}, {"type": "Feature", "properties": {"norad_id": 41727, "name": "GAOFEN-3", "group": "resource", "lat": -69.30499378421243, "lon": 162.6534192136977, "alt_km": 759.1648106595967, "timestamp": "2025-12-26T07:29:18.117090+00:00", "meta": {"OBJECT_NAME": "GAOFEN-3", "OBJECT_ID": "2016-049A", "EPOCH": "2025-12-25T23:40:04.192896", "MEAN_MOTION": 14.42216411, "ECCENTRICITY": 0.00010568, "INCLINATION": 98.4039, "RA_OF_ASC_NODE": 5.3699, "ARG_OF_PERICENTER": 55.5793, "MEAN_ANOMALY": 304.5497, "EPHEMERIS_TYPE": 0, "CLASSIFICATION_TYPE": "U", "NORAD_CAT_ID": 41727, "ELEMENT_SET_NO": 999, "REV_AT_EPOCH": 49368, "BSTAR": -1.166198e-06, "MEAN_MOTION_DOT": -4.7e-07, "MEAN_MOTION_DDOT": 0}, "tle": {"line1": "1 41727U 16049A   25359.98615964 -.00000047  00000+0 -11662-5 0  9996", "line2": "2 41727  98.4039   5.3699 0001056  55.5793 304.5497 14.42216411493682"}}, "geometry": {"type": "Point", "coordinates": [162.6534192136977, -69.30499378421243]}}, {"type": "Feature", "properties": {"norad_id": 41771, "name": "SKYSAT-C4", "group": "resource", "lat": 65.62036502384758, "lon": -139.5757013731325, "alt_km": 430.2083151147335, "timestamp": "2025-12-26T07:29:18.117101+00:00", "meta": {"OBJECT_NAME": "SKYSAT-C4", "OBJECT_ID": "2016-058B", "EPOCH": "2025-12-25T23:12:52.648992", "MEAN_MOTION": 15.42625252, "ECCENTRICITY": 0.00026162, "INCLINATION": 96.9364, "RA_OF_ASC_NODE": 24.5129, "ARG_OF_PERICENTER": 122.0395, "MEAN_ANOMALY": 238.1108, "EPHEMERIS_TYPE": 0, "CLASSIFICATION_TYPE": "U", "NORAD_CAT_ID": 41771, "ELEMENT_SET_NO": 999, "REV_AT_EPOCH": 51871, "BSTAR": 0.00035043664, "MEAN_MOTION_DOT": 0.00015184, "MEAN_MOTION_DDOT": 0}, "tle": {"line1": "1 41771U 16058B   25359.96727603  .00015184  00000+0  35044-3 0  9991", "line2": "2 41771  96.9364  24.5129 0002616 122.0395 238.1108 15.42625252518718"}}, "geometry": {"type": "Point", "coordinates": [-139.5757013731325, 65.62036502384758]}}, {"type": "Feature", "properties": {"norad_id": 41772, "name": "SKYSAT-C5", "group": "resource", "lat": -19.319109605782735, "lon": 45.990676721064226, "alt_km": 469.91743975005465, "timestamp": "2025-12-26T07:29:18.117111+00:00", "meta": {"OBJECT_NAME": "SKYSAT-C5", "OBJECT_ID": "2016-058C", "EPOCH": "2025-12-25T15:55:07.253760", "MEAN_MOTION": 15.34107914, "ECCENTRICITY": 0.00040147, "INCLINATION": 97.0737, "RA_OF_ASC_NODE": 42.874, "ARG_OF_PERICENTER": 228.3767, "MEAN_ANOMALY": 131.7134, "EPHEMERIS_TYPE": 0, "CLASSIFICATION_TYPE": "U", "NORAD_CAT_ID": 41772, "ELEMENT_SET_NO": 999, "REV_AT_EPOCH": 51714, "BSTAR": 0.00030794482, "MEAN_MOTION_DOT": 0.00010094, "MEAN_MOTION_DDOT": 0}, "tle": {"line1": "1 41772U 16058C   25359.66327840  .00010094  00000+0  30794-3 0  9990", "line2": "2 41772  97.0737  42.8740 0004014 228.3767 131.7134 15.34107914517148"}}, "geometry": {"type": "Point", "coordinates": [45.990676721064226, -19.319109605782735]}}, {"type": "Feature", "properties": {"norad_id": 41773, "name": "SKYSAT-C2", "group": "resource", "lat": 26.300141784102124, "lon": -152.23630550415533, "alt_km": 454.2095237143694, "timestamp": "2025-12-26T07:29:18.117121+00:00", "meta": {"OBJECT_NAME": "SKYSAT-C2", "OBJECT_ID": "2016-058D", "EPOCH": "2025-12-25T15:12:14.992704", "MEAN_MOTION": 15.37557399, "ECCENTRICITY": 0.0002701, "INCLINATION": 97.0352, "RA_OF_ASC_NODE": 23.6144, "ARG_OF_PERICENTER": 355.0273, "MEAN_ANOMALY": 5.0945, "EPHEMERIS_TYPE": 0, "CLASSIFICATION_TYPE": "U", "NORAD_CAT_ID": 41773, "ELEMENT_SET_NO": 999, "REV_AT_EPOCH": 51834, "BSTAR": 0.00033324, "MEAN_MOTION_DOT": 0.00012209, "MEAN_MOTION_DDOT": 0}, "tle": {"line1": "1 41773U 16058D   25359.63350686  .00012209  00000+0  33324-3 0  9994", "line2": "2 41773  97.0352  23.6144 0002701 355.0273   5.0945 15.37557399518343"}}, "geometry": {"type": "Point", "coordinates": [-152.23630550415533, 26.300141784102124]}}, {"type": "Feature", "properties": {"norad_id": 41774, "name": "SKYSAT-C3", "group": "resource", "lat": -26.16737818268854, "lon": 36.85365288922524, "alt_km": 438.49357613994744, "timestamp": "2025-12-26T07:29:18.117131+00:00", "meta": {"OBJECT_NAME": "SKYSAT-C3", "OBJECT_ID": "2016-058E", "EPOCH": "2025-12-25T16:03:24.261984", "MEAN_MOTION": 15.44855882, "ECCENTRICITY": 0.00021421, "INCLINATION": 96.9285, "RA_OF_ASC_NODE": 32.8147, "ARG_OF_PERICENTER": 106.7265, "MEAN_ANOMALY": 253.422, "EPHEMERIS_TYPE": 0, "CLASSIFICATION_TYPE": "U", "NORAD_CAT_ID": 41774, "ELEMENT_SET_NO": 999, "REV_AT_EPOCH": 51925, "BSTAR": 0.00039494136, "MEAN_MOTION_DOT": 0.00018467, "MEAN_MOTION_DDOT": 0}, "tle": {"line1": "1 41774U 16058E   25359.66903081  .00018467  00000+0  39494-3 0  9997", "line2": "2 41774  96.9285  32.8147 0002142 106.7265 253.4220 15.44855882519255"}}, "geometry": {"type": "Point", "coordinates": [36.85365288922524, -26.16737818268854]}}]}